CCSDS_OMM_VERS = 2.0
CREATION_DATE  = 
ORIGINATOR     = 

OBJECT_NAME    = STARLINK-35297
OBJECT_ID      = 2025-232F
CENTER_NAME    = EARTH
REF_FRAME      = TEME
TIME_SYSTEM    = UTC
MEAN_ELEMENT_THEORY = SGP/SGP4

EPOCH          = 2025-10-31T06:00:02.000160
MEAN_MOTION    = 15.69059440
ECCENTRICITY   = .00013774
INCLINATION    = 53.1595
RA_OF_ASC_NODE = 348.6318
ARG_OF_PERICENTER = 81.4364
MEAN_ANOMALY   = 104.9989

EPHEMERIS_TYPE = 0
CLASSIFICATION_TYPE = U
NORAD_CAT_ID   = 66010
ELEMENT_SET_NO = 999
REV_AT_EPOCH   = 272
BSTAR          = -.18283639E-1
MEAN_MOTION_DOT = -.1912469E-1
MEAN_MOTION_DDOT = 0

CCSDS_OMM_VERS = 2.0
CREATION_DATE  = 
ORIGINATOR     = 

OBJECT_NAME    = STARLINK-35256
OBJECT_ID      = 2025-232G
CENTER_NAME    = EARTH
REF_FRAME      = TEME
TIME_SYSTEM    = UTC
MEAN_ELEMENT_THEORY = SGP/SGP4

EPOCH          = 2025-10-31T06:00:02.000160
MEAN_MOTION    = 15.69067344
ECCENTRICITY   = .0001548
INCLINATION    = 53.1597
RA_OF_ASC_NODE = 348.6152
ARG_OF_PERICENTER = 88.0690
MEAN_ANOMALY   = 106.0297

EPHEMERIS_TYPE = 0
CLASSIFICATION_TYPE = U
NORAD_CAT_ID   = 66011
ELEMENT_SET_NO = 999
REV_AT_EPOCH   = 272
BSTAR          = -.18380266E-1
MEAN_MOTION_DOT = -.1922109E-1
MEAN_MOTION_DDOT = 0

CCSDS_OMM_VERS = 2.0
CREATION_DATE  = 
ORIGINATOR     = 

OBJECT_NAME    = STARLINK-35293
OBJECT_ID      = 2025-232H
CENTER_NAME    = EARTH
REF_FRAME      = TEME
TIME_SYSTEM    = UTC
MEAN_ELEMENT_THEORY = SGP/SGP4

EPOCH          = 2025-10-31T06:00:02.000160
MEAN_MOTION    = 15.69035049
ECCENTRICITY   = .00011546
INCLINATION    = 53.1595
RA_OF_ASC_NODE = 348.6269
ARG_OF_PERICENTER = 71.4937
MEAN_ANOMALY   = 116.8767

EPHEMERIS_TYPE = 0
CLASSIFICATION_TYPE = U
NORAD_CAT_ID   = 66012
ELEMENT_SET_NO = 999
REV_AT_EPOCH   = 272
BSTAR          = -.18027312E-1
MEAN_MOTION_DOT = -.1886804E-1
MEAN_MOTION_DDOT = 0

CCSDS_OMM_VERS = 2.0
CREATION_DATE  = 
ORIGINATOR     = 

OBJECT_NAME    = STARLINK-35307
OBJECT_ID      = 2025-232J
CENTER_NAME    = EARTH
REF_FRAME      = TEME
TIME_SYSTEM    = UTC
MEAN_ELEMENT_THEORY = SGP/SGP4

EPOCH          = 2025-10-31T06:00:02.000160
MEAN_MOTION    = 15.69064732
ECCENTRICITY   = .00014067
INCLINATION    = 53.1593
RA_OF_ASC_NODE = 348.6234
ARG_OF_PERICENTER = 84.6271
MEAN_ANOMALY   = 105.6392

EPHEMERIS_TYPE = 0
CLASSIFICATION_TYPE = U
NORAD_CAT_ID   = 66013
ELEMENT_SET_NO = 999
REV_AT_EPOCH   = 265
BSTAR          = -.18350953E-1
MEAN_MOTION_DOT = -.1919103E-1
MEAN_MOTION_DDOT = 0

CCSDS_OMM_VERS = 2.0
CREATION_DATE  = 
ORIGINATOR     = 

OBJECT_NAME    = STARLINK-35395
OBJECT_ID      = 2025-232K
CENTER_NAME    = EARTH
REF_FRAME      = TEME
TIME_SYSTEM    = UTC
MEAN_ELEMENT_THEORY = SGP/SGP4

EPOCH          = 2025-10-31T06:00:02.000160
MEAN_MOTION    = 15.69020442
ECCENTRICITY   = .00011827
INCLINATION    = 53.1594
RA_OF_ASC_NODE = 348.6191
ARG_OF_PERICENTER = 90.8189
MEAN_ANOMALY   = 101.3981

EPHEMERIS_TYPE = 0
CLASSIFICATION_TYPE = U
NORAD_CAT_ID   = 66014
ELEMENT_SET_NO = 999
REV_AT_EPOCH   = 271
BSTAR          = -.17879725E-1
MEAN_MOTION_DOT = -.1872081E-1
MEAN_MOTION_DDOT = 0

CCSDS_OMM_VERS = 2.0
CREATION_DATE  = 
ORIGINATOR     = 

OBJECT_NAME    = STARLINK-34622
OBJECT_ID      = 2025-232L
CENTER_NAME    = EARTH
REF_FRAME      = TEME
TIME_SYSTEM    = UTC
MEAN_ELEMENT_THEORY = SGP/SGP4

EPOCH          = 2025-10-31T06:00:02.000160
MEAN_MOTION    = 15.69049918
ECCENTRICITY   = .00012609
INCLINATION    = 53.1598
RA_OF_ASC_NODE = 348.6034
ARG_OF_PERICENTER = 76.4054
MEAN_ANOMALY   = 123.4532

EPHEMERIS_TYPE = 0
CLASSIFICATION_TYPE = U
NORAD_CAT_ID   = 66015
ELEMENT_SET_NO = 999
REV_AT_EPOCH   = 261
BSTAR          = -.18169509E-1
MEAN_MOTION_DOT = -.1901126E-1
MEAN_MOTION_DDOT = 0

CCSDS_OMM_VERS = 2.0
CREATION_DATE  = 
ORIGINATOR     = 

OBJECT_NAME    = STARLINK-35243
OBJECT_ID      = 2025-232M
CENTER_NAME    = EARTH
REF_FRAME      = TEME
TIME_SYSTEM    = UTC
MEAN_ELEMENT_THEORY = SGP/SGP4

EPOCH          = 2025-10-31T06:00:02.000160
MEAN_MOTION    = 15.69067297
ECCENTRICITY   = .00013004
INCLINATION    = 53.1596
RA_OF_ASC_NODE = 348.6073
ARG_OF_PERICENTER = 85.1670
MEAN_ANOMALY   = 112.7624

EPHEMERIS_TYPE = 0
CLASSIFICATION_TYPE = U
NORAD_CAT_ID   = 66016
ELEMENT_SET_NO = 999
REV_AT_EPOCH   = 272
BSTAR          = -.18347001E-1
MEAN_MOTION_DOT = -.1918839E-1
MEAN_MOTION_DDOT = 0

CCSDS_OMM_VERS = 2.0
CREATION_DATE  = 
ORIGINATOR     = 

OBJECT_NAME    = STARLINK-35398
OBJECT_ID      = 2025-232N
CENTER_NAME    = EARTH
REF_FRAME      = TEME
TIME_SYSTEM    = UTC
MEAN_ELEMENT_THEORY = SGP/SGP4

EPOCH          = 2025-10-31T06:00:02.000160
MEAN_MOTION    = 15.69063708
ECCENTRICITY   = .00012656
INCLINATION    = 53.1596
RA_OF_ASC_NODE = 348.5956
ARG_OF_PERICENTER = 83.5973
MEAN_ANOMALY   = 120.0878

EPHEMERIS_TYPE = 0
CLASSIFICATION_TYPE = U
NORAD_CAT_ID   = 66017
ELEMENT_SET_NO = 999
REV_AT_EPOCH   = 264
BSTAR          = -.18340072E-1
MEAN_MOTION_DOT = -.1917918E-1
MEAN_MOTION_DDOT = 0

CCSDS_OMM_VERS = 2.0
CREATION_DATE  = 
ORIGINATOR     = 

OBJECT_NAME    = STARLINK-35376
OBJECT_ID      = 2025-232P
CENTER_NAME    = EARTH
REF_FRAME      = TEME
TIME_SYSTEM    = UTC
MEAN_ELEMENT_THEORY = SGP/SGP4

EPOCH          = 2025-10-31T06:00:02.000160
MEAN_MOTION    = 15.69067036
ECCENTRICITY   = .00014111
INCLINATION    = 53.1597
RA_OF_ASC_NODE = 348.5994
ARG_OF_PERICENTER = 80.9619
MEAN_ANOMALY   = 120.8008

EPHEMERIS_TYPE = 0
CLASSIFICATION_TYPE = U
NORAD_CAT_ID   = 66018
ELEMENT_SET_NO = 999
REV_AT_EPOCH   = 272
BSTAR          = -.18351006E-1
MEAN_MOTION_DOT = -.1919274E-1
MEAN_MOTION_DDOT = 0

CCSDS_OMM_VERS = 2.0
CREATION_DATE  = 
ORIGINATOR     = 

OBJECT_NAME    = STARLINK-35382
OBJECT_ID      = 2025-232Q
CENTER_NAME    = EARTH
REF_FRAME      = TEME
TIME_SYSTEM    = UTC
MEAN_ELEMENT_THEORY = SGP/SGP4

EPOCH          = 2025-10-31T06:00:02.000160
MEAN_MOTION    = 15.69065800
ECCENTRICITY   = .0001374
INCLINATION    = 53.1597
RA_OF_ASC_NODE = 348.6107
ARG_OF_PERICENTER = 83.5699
MEAN_ANOMALY   = 112.4439

EPHEMERIS_TYPE = 0
CLASSIFICATION_TYPE = U
NORAD_CAT_ID   = 66019
ELEMENT_SET_NO = 999
REV_AT_EPOCH   = 272
BSTAR          = -.18338066E-1
MEAN_MOTION_DOT = -.191796E-1
MEAN_MOTION_DDOT = 0

CCSDS_OMM_VERS = 2.0
CREATION_DATE  = 
ORIGINATOR     = 

OBJECT_NAME    = STARLINK-35430
OBJECT_ID      = 2025-232R
CENTER_NAME    = EARTH
REF_FRAME      = TEME
TIME_SYSTEM    = UTC
MEAN_ELEMENT_THEORY = SGP/SGP4

EPOCH          = 2025-10-31T06:00:02.000160
MEAN_MOTION    = 15.69064272
ECCENTRICITY   = .00012143
INCLINATION    = 53.1597
RA_OF_ASC_NODE = 348.5872
ARG_OF_PERICENTER = 87.9094
MEAN_ANOMALY   = 119.6091

EPHEMERIS_TYPE = 0
CLASSIFICATION_TYPE = U
NORAD_CAT_ID   = 66020
ELEMENT_SET_NO = 999
REV_AT_EPOCH   = 271
BSTAR          = -.18342218E-1
MEAN_MOTION_DOT = -.1918119E-1
MEAN_MOTION_DDOT = 0

CCSDS_OMM_VERS = 2.0
CREATION_DATE  = 
ORIGINATOR     = 

OBJECT_NAME    = STARLINK-35432
OBJECT_ID      = 2025-232S
CENTER_NAME    = EARTH
REF_FRAME      = TEME
TIME_SYSTEM    = UTC
MEAN_ELEMENT_THEORY = SGP/SGP4

EPOCH          = 2025-10-31T06:00:02.000160
MEAN_MOTION    = 15.69063727
ECCENTRICITY   = .00013918
INCLINATION    = 53.1596
RA_OF_ASC_NODE = 348.5912
ARG_OF_PERICENTER = 88.4481
MEAN_ANOMALY   = 117.1534

EPHEMERIS_TYPE = 0
CLASSIFICATION_TYPE = U
NORAD_CAT_ID   = 66021
ELEMENT_SET_NO = 999
REV_AT_EPOCH   = 264
BSTAR          = -.18334448E-1
MEAN_MOTION_DOT = -.1917491E-1
MEAN_MOTION_DDOT = 0

