STARLINK-35297          
1 66010U 25232F   25304.25002315 -.01912469  00000+0 -18284-1 0  9996
2 66010  53.1595 348.6318 0001377  81.4364 104.9989 15.69059440  2724
STARLINK-35256          
1 66011U 25232G   25304.25002315 -.01922109  00000+0 -18380-1 0  9996
2 66011  53.1597 348.6152 0001548  88.0690 106.0297 15.69067344  2725
STARLINK-35293          
1 66012U 25232H   25304.25002315 -.01886804  00000+0 -18027-1 0  9996
2 66012  53.1595 348.6269 0001154  71.4937 116.8767 15.69035049  2724
STARLINK-35307          
1 66013U 25232J   25304.25002315 -.01919103  00000+0 -18351-1 0  9996
2 66013  53.1593 348.6234 0001406  84.6271 105.6392 15.69064732  2655
STARLINK-35395          
1 66014U 25232K   25304.25002315 -.01872081  00000+0 -17880-1 0  9996
2 66014  53.1594 348.6191 0001182  90.8189 101.3981 15.69020442  2711
STARLINK-34622          
1 66015U 25232L   25304.25002315 -.01901126  00000+0 -18170-1 0  9993
2 66015  53.1598 348.6034 0001260  76.4054 123.4532 15.69049918  2615
STARLINK-35243          
1 66016U 25232M   25304.25002315 -.01918839  00000+0 -18347-1 0  9999
2 66016  53.1596 348.6073 0001300  85.1670 112.7624 15.69067297  2728
STARLINK-35398          
1 66017U 25232N   25304.25002315 -.01917918  00000+0 -18340-1 0  9990
2 66017  53.1596 348.5956 0001265  83.5973 120.0878 15.69063708  2643
STARLINK-35376          
1 66018U 25232P   25304.25002315 -.01919274  00000+0 -18351-1 0  9990
2 66018  53.1597 348.5994 0001411  80.9619 120.8008 15.69067036  2728
STARLINK-35382          
1 66019U 25232Q   25304.25002315 -.01917960  00000+0 -18338-1 0  9996
2 66019  53.1597 348.6107 0001374  83.5699 112.4439 15.69065800  2723
STARLINK-35430          
1 66020U 25232R   25304.25002315 -.01918119  00000+0 -18342-1 0  9990
2 66020  53.1597 348.5872 0001214  87.9094 119.6091 15.69064272  2717
STARLINK-35432          
1 66021U 25232S   25304.25002315 -.01917491  00000+0 -18334-1 0  9994
2 66021  53.1596 348.5912 0001391  88.4481 117.1534 15.69063727  2645
